H1 CPF 01  gfz 2022 01 06 13  5062 terrasarx 
H2 0702601  6201 31698    2022 01 06 12 59 42 2022 01 11 00 00 42   120 1 1  0 0 0
H9
10 0 59587  39582.000000  0    1568606.204  -2662407.569   6146357.172
10 0 59587  39702.000000  0    1693853.554  -3458888.098   5701405.499
10 0 59587  39822.000000  0    1776099.670  -4196785.153   5156190.261
10 0 59587  39942.000000  0    1815040.191  -4862430.762   4520263.745
10 0 59587  40062.000000  0    1811355.099  -5443414.003   3804784.245
10 0 59587  40182.000000  0    1766675.598  -5928822.533   3022323.151
10 0 59587  40302.000000  0    1683528.755  -6309455.895   2186643.388
10 0 59587  40422.000000  0    1565263.451  -6578008.039   1312455.892
10 0 59587  40542.000000  0    1415958.265  -6729215.684    415156.328
10 0 59587  40662.000000  0    1240312.864  -6759967.104   -489453.121
10 0 59587  40782.000000  0    1043524.954  -6669368.588  -1385452.840
10 0 59587  40902.000000  0     831157.177  -6458761.705  -2257095.967
10 0 59587  41022.000000  0     608997.907  -6131696.117  -3089091.312
10 0 59587  41142.000000  0     382920.481  -5693860.270  -3866875.758
10 0 59587  41262.000000  0     158742.451  -5152970.386  -4576870.565
10 0 59587  41382.000000  0     -57911.289  -4518621.145  -5206715.028
10 0 59587  41502.000000  0    -261737.678  -3802104.113  -5745474.886
10 0 59587  41622.000000  0    -447874.439  -3016197.057  -6183822.951
10 0 59587  41742.000000  0    -612006.274  -2174929.707  -6514189.485
10 0 59587  41862.000000  0    -750456.844  -1293330.698  -6730881.395
10 0 59587  41982.000000  0    -860264.989   -387160.847  -6830170.596
10 0 59587  42102.000000  0    -939243.804    527364.721  -6810351.105
10 0 59587  42222.000000  0    -986022.087   1433859.619  -6671764.024
10 0 59587  42342.000000  0   -1000067.745   2316052.276  -6416792.244
10 0 59587  42462.000000  0    -981692.652   3158070.820  -6049824.568
10 0 59587  42582.000000  0    -932039.006   3944725.308  -5577189.332
10 0 59587  42702.000000  0    -853047.092   4661781.053  -5007055.505
10 0 59587  42822.000000  0    -747405.166   5296219.649  -4349303.311
10 0 59587  42942.000000  0    -618482.289   5836482.772  -3615363.063
10 0 59587  43062.000000  0    -470244.662   6272692.252  -2818024.512
10 0 59587  43182.000000  0    -307157.079   6596842.444  -1971219.830
10 0 59587  43302.000000  0    -134071.830   6802959.909  -1089781.897
10 0 59587  43422.000000  0      43892.757   6887225.269   -189182.628
10 0 59587  43542.000000  0     221481.570   6848053.712    714743.789
10 0 59587  43662.000000  0     393436.146   6686131.241   1606087.575
10 0 59587  43782.000000  0     554627.996   6404403.847   2469153.012
10 0 59587  43902.000000  0     700188.040   6008020.561   3288742.404
10 0 59587  44022.000000  0     825629.980   5504234.309   4050430.053
10 0 59587  44142.000000  0     926966.496   4902263.342   4740821.255
10 0 59587  44262.000000  0    1000810.441   4213109.590   5347793.231
10 0 59587  44382.000000  0    1044462.521   3449345.988   5860702.563
10 0 59587  44502.000000  0    1055983.614   2624879.857   6270567.632
10 0 59587  44622.000000  0    1034247.892   1754692.934   6570220.675
10 0 59587  44742.000000  0     978977.604    854564.511   6754427.305
10 0 59587  44862.000000  0     890758.674    -59216.746   6819971.433
10 0 59587  44982.000000  0     771036.755   -970146.071   6765708.280
10 0 59587  45102.000000  0     622093.462  -1861800.632   6592584.315
10 0 59587  45222.000000  0     447003.080  -2718135.347   6303622.061
10 0 59587  45342.000000  0     249570.527  -3523773.362   5903870.401
10 0 59587  45462.000000  0      34252.141  -4264283.206   5400318.775
10 0 59587  45582.000000  0    -193939.007  -4926439.266   4801781.655
10 0 59587  45702.000000  0    -429542.315  -5498465.182   4118752.690
10 0 59587  45822.000000  0    -666772.781  -5970254.250   3363224.964
10 0 59587  45942.000000  0    -899654.621  -6333557.716   2548481.510
10 0 59587  46062.000000  0   -1122160.939  -6582138.323   1688860.556
10 0 59587  46182.000000  0   -1328357.377  -6711886.763    799500.235
10 0 59587  46302.000000  0   -1512547.559  -6720895.700   -103936.164
10 0 59587  46422.000000  0   -1669412.969  -6609487.641  -1005545.241
10 0 59587  46542.000000  0   -1794145.337  -6380198.224  -1889472.105
10 0 59587  46662.000000  0   -1882568.647  -6037715.714  -2740196.749
10 0 59587  46782.000000  0   -1931247.843  -5588777.960  -3542812.719
10 0 59587  46902.000000  0   -1937581.048  -5042028.948  -4283291.396
10 0 59587  47022.000000  0   -1899872.983  -4407840.241  -4948725.525
10 0 59587  47142.000000  0   -1817388.694  -3698103.547  -5527548.392
10 0 59587  47262.000000  0   -1690386.827  -2925999.482  -6009726.665
10 0 59587  47382.000000  0   -1520131.694  -2105746.780  -6386924.674
10 0 59587  47502.000000  0   -1308884.135  -1252337.191  -6652636.917
10 0 59587  47622.000000  0   -1059872.468   -381262.577  -6802288.965
10 0 59587  47742.000000  0    -777243.883    491762.166  -6833307.373
10 0 59587  47862.000000  0    -465995.790   1351075.705  -6745158.545
10 0 59587  47982.000000  0    -131889.716   2181343.833  -6539356.670
10 0 59587  48102.000000  0     218651.291   2967826.341  -6219441.722
10 0 59587  48222.000000  0     578662.761   3696635.721  -5790926.553
10 0 59587  48342.000000  0     940773.048   4354981.370  -5261210.401
10 0 59587  48462.000000  0    1297349.110   4931396.162  -4639462.801
10 0 59587  48582.000000  0    1640652.929   5415943.235  -3936476.158
10 0 59587  48702.000000  0    1963005.032   5800396.183  -3164487.237
10 0 59587  48822.000000  0    2256951.465   6078389.488  -2336971.425
10 0 59587  48942.000000  0    2515431.168   6245536.100  -1468411.065
10 0 59587  49062.000000  0    2731939.249   6299507.422   -574040.832
10 0 59587  49182.000000  0    2900681.647   6240072.004    330424.400
10 0 59587  49302.000000  0    3016717.106   6069091.901   1229072.296
10 0 59587  49422.000000  0    3076082.940   5790477.818   2106080.678
10 0 59587  49542.000000  0    3075901.226   5410103.178   2946004.528
10 0 59587  49662.000000  0    3014463.020   4935678.725   3734055.834
10 0 59587  49782.000000  0    2891288.818   4376591.695   4456369.910
10 0 59587  49902.000000  0    2707161.353   3743712.596   5100254.632
10 0 59587  50022.000000  0    2464130.335   3049173.800   5654412.223
10 0 59587  50142.000000  0    2165493.561   2306130.351   6109132.463
10 0 59587  50262.000000  0    1815752.842   1528506.045   6456458.838
10 0 59587  50382.000000  0    1420544.154    730727.624   6690322.057
10 0 59587  50502.000000  0     986544.829    -72544.262   6806638.641
10 0 59587  50622.000000  0     521360.222   -866682.964   6803378.479
10 0 59587  50742.000000  0      33390.185  -1637362.484   6680599.150
10 0 59587  50862.000000  0    -468322.792  -2370815.723   6440444.574
10 0 59587  50982.000000  0    -974260.827  -3054080.888   6087109.000
10 0 59587  51102.000000  0   -1474608.766  -3675230.940   5626766.507
10 0 59587  51222.000000  0   -1959442.330  -4223583.843   5067470.359
10 0 59587  51342.000000  0   -2418925.548  -4689892.076   4419020.397
10 0 59587  51462.000000  0   -2843512.642  -5066506.669   3692796.911
10 0 59587  51582.000000  0   -3224148.059  -5347510.632   2901562.455
10 0 59587  51702.000000  0   -3552459.547  -5528817.643   2059236.759
10 0 59587  51822.000000  0   -3820941.284  -5608235.612   1180649.349
10 0 59587  51942.000000  0   -4023122.726  -5585492.566    281272.961
10 0 59587  52062.000000  0   -4153718.321  -5462223.771   -623056.304
10 0 59587  52182.000000  0   -4208754.302  -5241920.435  -1516426.993
10 0 59587  52302.000000  0   -4185668.485  -4929839.935  -2383141.665
10 0 59587  52422.000000  0   -4083380.789  -4532880.507  -3208000.002
10 0 59587  52542.000000  0   -3902332.841  -4059424.776  -3976569.262
10 0 59587  52662.000000  0   -3644496.644  -3519157.232  -4675436.648
10 0 59587  52782.000000  0   -3313353.100  -2922860.435  -5292439.875
10 0 59587  52902.000000  0   -2913841.012  -2282194.475  -5816871.675
10 0 59587  53022.000000  0   -2452278.876  -1609465.898  -6239655.942
10 0 59587  53142.000000  0   -1936260.518   -917389.996  -6553494.538
10 0 59587  53262.000000  0   -1374526.819   -218851.348  -6752981.382
10 0 59587  53382.000000  0    -776817.889    473331.932  -6834684.247
10 0 59587  53502.000000  0    -153707.154   1146637.243  -6797197.515
10 0 59587  53622.000000  0     483581.124   1789058.182  -6641163.390
10 0 59587  53742.000000  0    1123368.140   2389313.195  -6369264.140
10 0 59587  53862.000000  0    1753730.808   2937041.054  -5986181.578
10 0 59587  53982.000000  0    2362719.523   3422979.096  -5498524.434
10 0 59587  54102.000000  0    2938581.809   3839120.636  -4914724.496
10 0 59587  54222.000000  0    3469987.916   4178851.072  -4244902.805
10 0 59587  54342.000000  0    3946255.356   4437059.518  -3500704.831
10 0 59587  54462.000000  0    4357567.335   4610222.474  -2695105.985
10 0 59587  54582.000000  0    4695179.001   4696456.593  -1842189.375
10 0 59587  54702.000000  0    4951607.449   4695540.054   -956901.473
10 0 59587  54822.000000  0    5120800.474   4608900.139    -54786.694
10 0 59587  54942.000000  0    5198276.859   4439567.290    848291.197
10 0 59587  55062.000000  0    5181237.493   4192097.659   1736434.733
10 0 59587  55182.000000  0    5068644.736   3872464.442   2594001.380
10 0 59587  55302.000000  0    4861264.606   3487919.664   3405888.703
10 0 59587  55422.000000  0    4561670.935   3046831.347   4157807.349
10 0 59587  55542.000000  0    4174213.431   2558500.136   4836536.310
10 0 59587  55662.000000  0    3704951.475   2032961.278   5430156.747
10 0 59587  55782.000000  0    3161551.213   1480775.883   5928260.459
10 0 59587  55902.000000  0    2553153.611    912815.718   6322127.149
10 0 59587  56022.000000  0    1890215.415    340047.523   6604869.617
99
